NORAD_CAT_ID,OBJECT_NAME,OBJECT_TYPE,EPOCH,MEAN_MOTION,ECCENTRICITY,INCLINATION,RA_OF_ASC_NODE,ARG_OF_PERICENTER,MEAN_ANOMALY,BSTAR,MEAN_MOTION_DOT,MEAN_MOTION_DDOT,TLE_LINE0,TLE_LINE1,TLE_LINE2,SEMIMAJOR_AXIS,PERIOD,APOGEE,PERIGEE,DECAYED
52673.0,STARLINK-3976,PAYLOAD,2024-04-04 15:16:37,15.08870566,0.0001432,53.2171,74.7364,76.055,284.0601,0.00047732,7.323e-05,0.0,0 STARLINK-3976,1 52673U 22053T   24095.63654596  .00007323  00000-0  47732-3 0  9990,2 52673  53.2171  74.7364 0001432  76.0550 284.0601 15.08870566104752,6917.787,95.436,540.643,538.661,0.0
52673.0,STARLINK-3976,PAYLOAD,2024-04-05 05:35:05,15.08851472,0.0001381,53.2166,72.0603,82.7251,277.3898,-1.0006e-05,-4.47e-06,0.0,0 STARLINK-3976,1 52673U 22053T   24096.23270591 -.00000447  00000-0 -10006-4 0  9993,2 52673  53.2166  72.0603 0001381  82.7251 277.3898 15.08851472104419,6917.845,95.437,540.666,538.755,0.0
52673.0,STARLINK-3976,PAYLOAD,2024-04-05 08:45:51,15.08852038,0.0001369,53.2165,71.4652,83.0784,277.0363,1.5289e-05,-4.5e-07,0.0,0 STARLINK-3976,1 52673U 22053T   24096.36518480 -.00000045  00000-0  15289-4 0  9990,2 52673  53.2165  71.4652 0001369  83.0784 277.0363 15.08852038104868,6917.844,95.437,540.656,538.762,0.0
52673.0,STARLINK-3976,PAYLOAD,2024-04-05 21:28:56,15.08852299,0.0001662,53.2171,69.0878,87.18,272.9382,8.4297e-05,1.054e-05,0.0,0 STARLINK-3976,1 52673U 22053T   24096.89510214  .00001054  00000-0  84297-4 0  9990,2 52673  53.2171  69.0878 0001662  87.1800 272.9382 15.08852299104941,6917.843,95.437,540.858,538.558,0.0
52673.0,STARLINK-3976,PAYLOAD,2024-04-06 03:50:29,15.08840579,0.000168,53.2193,67.8985,90.173,269.9454,-9.8872e-05,-1.861e-05,0.0,0 STARLINK-3976,1 52673U 22053T   24097.16006594 -.00001861  00000-0 -98872-4 0  9994,2 52673  53.2193  67.8985 0001680  90.1730 269.9454 15.08840579104557,6917.879,95.438,540.906,538.581,0.0
52673.0,STARLINK-3976,PAYLOAD,2024-04-06 07:01:15,15.0884377,0.0001397,53.2171,67.302,86.1075,274.0077,-2.3875e-05,-6.68e-06,0.0,0 STARLINK-3976,1 52673U 22053T   24097.29254471 -.00000668  00000-0 -23875-4 0  9992,2 52673  53.2171  67.3020 0001397  86.1075 274.0077 15.08843770105005,6917.869,95.437,540.7,538.767,0.0
52673.0,STARLINK-3976,PAYLOAD,2024-04-07 05:16:40,15.08831124,0.0001602,53.2195,63.1402,87.7615,272.3561,0.00016268,2.301e-05,0.0,0 STARLINK-3976,1 52673U 22053T   24098.21991400  .00002301  00000-0  16268-3 0  9996,2 52673  53.2195  63.1402 0001602  87.7615 272.3561 15.08831124104711,6917.908,95.438,540.881,538.664,0.0
52673.0,STARLINK-3976,PAYLOAD,2024-04-07 21:10:31,15.08844377,0.0001479,53.2185,60.1652,83.8706,276.2455,-0.00011307,-2.087e-05,0.0,0 STARLINK-3976,1 52673U 22053T   24098.88230765 -.00002087  00000-0 -11307-3 0  9991,2 52673  53.2185  60.1652 0001479  83.8706 276.2455 15.08844377104814,6917.867,95.437,540.755,538.709,0.0
52673.0,STARLINK-3976,PAYLOAD,2024-04-08 14:39:45,15.08846712,0.0001242,53.218,56.8927,92.799,267.3144,0.00022004,3.216e-05,0.0,0 STARLINK-3976,1 52673U 22053T   24099.61094791  .00003216  00000-0  22004-3 0  9999,2 52673  53.2180  56.8927 0001242  92.7990 267.3144 15.08846712105359,6917.86,95.437,540.584,538.866,0.0
52673.0,STARLINK-3976,PAYLOAD,2024-04-09 03:22:51,15.08834796,0.0001312,53.2181,54.5148,90.1846,269.9296,5.2042e-05,5.4e-06,0.0,0 STARLINK-3976,1 52673U 22053T   24100.14087531  .00000540  00000-0  52042-4 0  9997,2 52673  53.2181  54.5148 0001312  90.1846 269.9296 15.08834796105007,6917.896,95.438,540.669,538.854,0.0
52673.0,STARLINK-3976,PAYLOAD,2024-04-09 14:30:32,15.08845172,0.0001447,53.2197,52.4336,93.7511,266.3647,0.00012787,1.748e-05,0.0,0 STARLINK-3976,1 52673U 22053T   24100.60454839  .00001748  00000-0  12787-3 0  9999,2 52673  53.2197  52.4336 0001447  93.7511 266.3647 15.08845172105503,6917.865,95.437,540.731,538.729,0.0
52673.0,STARLINK-3976,PAYLOAD,2024-04-10 03:13:38,15.0884523,0.000153,53.2212,50.0539,98.6675,261.4491,4.3709e-05,4.08e-06,0.0,0 STARLINK-3976,1 52673U 22053T   24101.13446956  .00000408  00000-0  43709-4 0  9990,2 52673  53.2212  50.0539 0001530  98.6675 261.4491 15.08845230105584,6917.864,95.437,540.788,538.671,0.0
52673.0,STARLINK-3976,PAYLOAD,2024-04-10 20:42:52,15.08840147,0.0001661,53.2206,46.7834,97.1865,262.9316,7.7891e-05,9.52e-06,0.0,0 STARLINK-3976,1 52673U 22053T   24101.86311130  .00000952  00000-0  77891-4 0  9998,2 52673  53.2206  46.7834 0001661  97.1865 262.9316 15.08840147105266,6917.88,95.438,540.894,538.596,0.0
52673.0,STARLINK-3976,PAYLOAD,2024-04-11 03:04:25,15.08832225,0.0001463,53.2195,45.5969,85.3277,274.7883,5.035e-05,5.13e-06,0.0,0 STARLINK-3976,1 52673U 22053T   24102.12807721  .00000513  00000-0  50350-4 0  9998,2 52673  53.2195  45.5969 0001463  85.3277 274.7883 15.08832225105308,6917.904,95.438,540.781,538.757,0.0
52673.0,STARLINK-3976,PAYLOAD,2024-04-11 12:36:43,15.08845397,0.0001438,53.2192,43.8121,85.3579,274.7578,4.3101e-05,3.98e-06,0.0,0 STARLINK-3976,1 52673U 22053T   24102.52550925  .00000398  00000-0  43101-4 0  9990,2 52673  53.2192  43.8121 0001438  85.3579 274.7578 15.08845397105364,6917.864,95.437,540.724,538.734,0.0
52673.0,STARLINK-3976,PAYLOAD,2024-04-12 02:55:13,15.08832361,0.0001444,53.221,41.1372,86.7608,273.3549,2.9021e-05,1.74e-06,0.0,0 STARLINK-3976,1 52673U 22053T   24103.12167870  .00000174  00000-0  29021-4 0  9997,2 52673  53.2210  41.1372 0001444  86.7608 273.3549 15.08832361105459,6917.904,95.438,540.768,538.77,0.0
52673.0,STARLINK-3976,PAYLOAD,2024-04-13 04:21:23,15.08834796,0.0001383,53.2197,36.3805,99.7292,260.3856,0.00010086,1.317e-05,0.0,0 STARLINK-3976,1 52673U 22053T   24104.18151817  .00001317  00000-0  10086-3 0  9998,2 52673  53.2197  36.3805 0001383  99.7292 260.3856 15.08834796105614,6917.896,95.438,540.718,538.805,0.0
52673.0,STARLINK-3976,PAYLOAD,2024-04-14 02:36:47,15.08840498,0.0001284,53.2195,32.2156,94.4745,265.6394,7.3287e-05,8.79e-06,0.0,0 STARLINK-3976,1 52673U 22053T   24105.10887831  .00000879  00000-0  73287-4 0  9998,2 52673  53.2195  32.2156 0001284  94.4745 265.6394 15.08840498106185,6917.879,95.438,540.632,538.856,0.0
52673.0,STARLINK-3976,PAYLOAD,2024-04-15 04:02:57,15.08845185,0.0001416,53.2203,27.4543,80.1397,279.9756,0.00013096,1.797e-05,0.0,0 STARLINK-3976,1 52673U 22053T   24106.16871572  .00001797  00000-0  13096-3 0  9991,2 52673  53.2203  27.4543 0001416  80.1397 279.9756 15.08845185105911,6917.865,95.437,540.709,538.75,0.0
52673.0,STARLINK-3976,PAYLOAD,2024-04-16 11:50:38,15.08860041,0.0001678,53.2227,21.5073,90.5468,269.5716,0.00015401,2.165e-05,0.0,0 STARLINK-3976,1 52673U 22053T   24107.49350329  .00002165  00000-0  15401-3 0  9992,2 52673  53.2227  21.5073 0001678  90.5468 269.5716 15.08860041106116,6917.819,95.436,540.845,538.523,0.0
52673.0,STARLINK-3976,PAYLOAD,2024-04-17 00:33:43,15.08859247,0.0001848,53.2194,19.1299,117.8861,242.2319,0.00022669,3.323e-05,0.0,0 STARLINK-3976,1 52673U 22053T   24108.02342287  .00003323  00000-0  22669-3 0  9997,2 52673  53.2194  19.1299 0001848 117.8861 242.2319 15.08859247106620,6917.822,95.436,540.965,538.408,0.0
52673.0,STARLINK-3976,PAYLOAD,2024-04-17 03:44:29,15.0886598,0.0001302,53.218,18.5338,125.11,235.0014,0.00038022,5.773e-05,0.0,0 STARLINK-3976,1 52673U 22053T   24108.15589842  .00005773  00000-0  38022-3 0  9992,2 52673  53.2180  18.5338 0001302 125.1100 235.0014 15.08865980106640,6917.801,95.436,540.567,538.765,0.0
52673.0,STARLINK-3976,PAYLOAD,2024-04-17 21:13:45,15.08834598,0.0001235,53.2184,15.2628,106.7177,253.3951,-0.00016914,-2.978e-05,0.0,0 STARLINK-3976,1 52673U 22053T   24108.88455630 -.00002978  00000-0 -16914-3 0  9991,2 52673  53.2184  15.2628 0001235 106.7177 253.3951 15.08834598106750,6917.897,95.438,540.616,538.908,0.0
52673.0,STARLINK-3976,PAYLOAD,2024-04-18 03:35:18,15.08827738,0.0001023,53.218,14.076,90.137,269.9739,-0.00022846,-3.921e-05,0.0,0 STARLINK-3976,1 52673U 22053T   24109.14952176 -.00003921  00000-0 -22846-3 0  9998,2 52673  53.2180  14.0760 0001023  90.1370 269.9739 15.08827738106368,6917.918,95.438,540.491,539.075,0.0
52673.0,STARLINK-3976,PAYLOAD,2024-04-18 05:10:41,15.08825131,0.0001139,53.2184,13.7783,95.4417,264.6705,-0.00025889,-4.404e-05,0.0,0 STARLINK-3976,1 52673U 22053T   24109.21576377 -.00004404  00000-0 -25889-3 0  9998,2 52673  53.2184  13.7783 0001139  95.4417 264.6705 15.08825131106800,6917.926,95.438,540.579,539.003,0.0
52673.0,STARLINK-3976,PAYLOAD,2024-04-18 22:39:56,15.08832466,0.0001313,53.218,10.5083,78.7756,281.3383,0.00017382,2.479e-05,0.0,0 STARLINK-3976,1 52673U 22053T   24109.94440800  .00002479  00000-0  17382-3 0  9996,2 52673  53.2180  10.5083 0001313  78.7756 281.3383 15.08832466106917,6917.903,95.438,540.677,538.86,0.0
52673.0,STARLINK-3976,PAYLOAD,2024-04-19 00:15:19,15.08845201,0.0001351,53.2188,10.2064,99.04,261.0745,9.5412e-05,1.231e-05,0.0,0 STARLINK-3976,1 52673U 22053T   24110.01063911  .00001231  00000-0  95412-4 0  9996,2 52673  53.2188  10.2064 0001351  99.0400 261.0745 15.08845201106496,6917.864,95.437,540.664,538.795,0.0
52673.0,STARLINK-3976,PAYLOAD,2024-04-19 22:30:43,15.08862557,0.0001644,53.219,6.0485,99.4041,260.7137,0.000762,0.00011867,0.0,0 STARLINK-3976,1 52673U 22053T   24110.93800032  .00011867  00000-0  76200-3 0  9999,2 52673  53.2190   6.0485 0001644  99.4041 260.7137 15.08862557107067,6917.811,95.436,540.814,538.539,0.0
52673.0,STARLINK-3976,PAYLOAD,2024-04-20 00:06:06,15.08869309,0.0001613,53.219,5.749,93.5935,266.5242,0.00078464,0.00012232,0.0,0 STARLINK-3976,1 52673U 22053T   24111.00423801  .00012232  00000-0  78464-3 0  9994,2 52673  53.2190   5.7490 0001613  93.5935 266.5242 15.08869309106648,6917.791,95.436,540.772,538.54,0.0
52673.0,STARLINK-3976,PAYLOAD,2024-04-20 20:46:06,15.08858243,0.000129,53.2187,1.8866,109.6152,250.4979,0.00014711,2.055e-05,0.0,0 STARLINK-3976,1 52673U 22053T   24111.86535059  .00002055  00000-0  14711-3 0  9994,2 52673  53.2187   1.8866 0001290 109.6152 250.4979 15.08858243106777,6917.825,95.436,540.582,538.797,0.0
